{
  "type": "FeatureCollection",
  "features": [
    {
      "type": "Feature",
      "properties": {
        "norad_id": 66597,
        "name": "STARLINK-35820",
        "group": "last-30-days",
        "lat": -39.897069236704276,
        "lon": 22.051919474300853,
        "alt_km": 445.5443298894206,
        "timestamp": "2025-12-22T04:03:37.885559+00:00",
        "meta_object_name": "STARLINK-35820",
        "meta_object_id": "2025-270K",
        "meta_epoch": "2025-12-20T12:05:06.576576",
        "meta_mean_motion": 15.40728378,
        "meta_eccentricity": 0.00023281,
        "meta_inclination": 42.9989,
        "meta_ra_of_asc_node": 147.8597,
        "meta_arg_of_pericenter": 279.6537,
        "meta_mean_anomaly": 80.4056,
        "meta_ephemeris_type": 0,
        "meta_classification_type": "U",
        "meta_norad_cat_id": 66597,
        "meta_element_set_no": 999,
        "meta_rev_at_epoch": 565,
        "meta_bstar": 0.0011149945,
        "meta_mean_motion_dot": 0.00046603,
        "meta_mean_motion_ddot": 0,
        "tle_line1": "1 66597U 25270K   25354.50354834  .00046603  00000+0  11150-2 0  9998",
        "tle_line2": "2 66597  42.9989 147.8597 0002328 279.6537  80.4056 15.40728378  5655"
      },
      "geometry": {
        "type": "Point",
        "coordinates": [
          22.051919474300853,
          -39.897069236704276
        ]
      }
    },
    {
      "type": "Feature",
      "properties": {
        "norad_id": 66598,
        "name": "STARLINK-35981",
        "group": "last-30-days",
        "lat": -15.772212358814603,
        "lon": 120.40651352711643,
        "alt_km": 444.9001372284147,
        "timestamp": "2025-12-22T04:03:37.885569+00:00",
        "meta_object_name": "STARLINK-35981",
        "meta_object_id": "2025-270L",
        "meta_epoch": "2025-12-21T17:16:16.072608",
        "meta_mean_motion": 15.40718851,
        "meta_eccentricity": 0.0002474,
        "meta_inclination": 42.9995,
        "meta_ra_of_asc_node": 140.6423,
        "meta_arg_of_pericenter": 263.4053,
        "meta_mean_anomaly": 96.6522,
        "meta_ephemeris_type": 0,
        "meta_classification_type": "U",
        "meta_norad_cat_id": 66598,
        "meta_element_set_no": 999,
        "meta_rev_at_epoch": 558,
        "meta_bstar": 0.00074972,
        "meta_mean_motion_dot": 0.00031163,
        "meta_mean_motion_ddot": 0,
        "tle_line1": "1 66598U 25270L   25355.71963047  .00031163  00000+0  74972-3 0  9992",
        "tle_line2": "2 66598  42.9995 140.6423 0002474 263.4053  96.6522 15.40718851  5582"
      },
      "geometry": {
        "type": "Point",
        "coordinates": [
          120.40651352711643,
          -15.772212358814603
        ]
      }
    },
    {
      "type": "Feature",
      "properties": {
        "norad_id": 66599,
        "name": "STARLINK-35930",
        "group": "last-30-days",
        "lat": -3.1635385834344896,
        "lon": -39.05844978729429,
        "alt_km": 417.7359363555879,
        "timestamp": "2025-12-22T04:03:37.885581+00:00",
        "meta_object_name": "STARLINK-35930",
        "meta_object_id": "2025-270M",
        "meta_epoch": "2025-12-19T04:08:36.625632",
        "meta_mean_motion": 15.50348464,
        "meta_eccentricity": 0.0002903,
        "meta_inclination": 42.9985,
        "meta_ra_of_asc_node": 155.067,
        "meta_arg_of_pericenter": 324.189,
        "meta_mean_anomaly": 35.8775,
        "meta_ephemeris_type": 0,
        "meta_classification_type": "U",
        "meta_norad_cat_id": 66599,
        "meta_element_set_no": 999,
        "meta_rev_at_epoch": 534,
        "meta_bstar": -2.964998e-06,
        "meta_mean_motion_dot": -5.14e-06,
        "meta_mean_motion_ddot": 0,
        "tle_line1": "1 66599U 25270M   25353.17264613 -.00000514  00000+0 -29650-5 0  9997",
        "tle_line2": "2 66599  42.9985 155.0670 0002903 324.1890  35.8775 15.50348464  5346"
      },
      "geometry": {
        "type": "Point",
        "coordinates": [
          -39.05844978729429,
          -3.1635385834344896
        ]
      }
    },
    {
      "type": "Feature",
      "properties": {
        "norad_id": 66600,
        "name": "STARLINK-35980",
        "group": "last-30-days",
        "lat": 17.59880930492482,
        "lon": 157.83466439209607,
        "alt_km": 441.4877685244637,
        "timestamp": "2025-12-22T04:03:37.885592+00:00",
        "meta_object_name": "STARLINK-35980",
        "meta_object_id": "2025-270N",
        "meta_epoch": "2025-12-21T20:00:01.999008",
        "meta_mean_motion": 15.40659804,
        "meta_eccentricity": 0.0001753,
        "meta_inclination": 43.0003,
        "meta_ra_of_asc_node": 139.8698,
        "meta_arg_of_pericenter": 279.5794,
        "meta_mean_anomaly": 41.8986,
        "meta_ephemeris_type": 0,
        "meta_classification_type": "U",
        "meta_norad_cat_id": 66600,
        "meta_element_set_no": 999,
        "meta_rev_at_epoch": 576,
        "meta_bstar": 0.0023719,
        "meta_mean_motion_dot": 0.0009995,
        "meta_mean_motion_ddot": 0,
        "tle_line1": "1 66600U 25270N   25355.83335647  .00099950  00000+0  23719-2 0  9998",
        "tle_line2": "2 66600  43.0003 139.8698 0001753 279.5794  41.8986 15.40659804  5769"
      },
      "geometry": {
        "type": "Point",
        "coordinates": [
          157.83466439209607,
          17.59880930492482
        ]
      }
    },
    {
      "type": "Feature",
      "properties": {
        "norad_id": 66601,
        "name": "STARLINK-35978",
        "group": "last-30-days",
        "lat": -40.62713301662707,
        "lon": 71.14742096634392,
        "alt_km": 445.9195538112581,
        "timestamp": "2025-12-22T04:03:37.885602+00:00",
        "meta_object_name": "STARLINK-35978",
        "meta_object_id": "2025-270P",
        "meta_epoch": "2025-12-20T19:42:11.790720",
        "meta_mean_motion": 15.40722377,
        "meta_eccentricity": 0.00014939,
        "meta_inclination": 43.0002,
        "meta_ra_of_asc_node": 145.942,
        "meta_arg_of_pericenter": 271.2844,
        "meta_mean_anomaly": 88.7841,
        "meta_ephemeris_type": 0,
        "meta_classification_type": "U",
        "meta_norad_cat_id": 66601,
        "meta_element_set_no": 999,
        "meta_rev_at_epoch": 543,
        "meta_bstar": 0.00099615846,
        "meta_mean_motion_dot": 0.00041566,
        "meta_mean_motion_ddot": 0,
        "tle_line1": "1 66601U 25270P   25354.82096980  .00041566  00000+0  99616-3 0  9991",
        "tle_line2": "2 66601  43.0002 145.9420 0001493 271.2844  88.7841 15.40722377  5436"
      },
      "geometry": {
        "type": "Point",
        "coordinates": [
          71.14742096634392,
          -40.62713301662707
        ]
      }
    },
    {
      "type": "Feature",
      "properties": {
        "norad_id": 66602,
        "name": "STARLINK-36050",
        "group": "last-30-days",
        "lat": -21.453561732527692,
        "lon": -16.70220429618896,
        "alt_km": 444.6755742809346,
        "timestamp": "2025-12-22T04:03:37.885612+00:00",
        "meta_object_name": "STARLINK-36050",
        "meta_object_id": "2025-270Q",
        "meta_epoch": "2025-12-21T19:21:49.081248",
        "meta_mean_motion": 15.4074909,
        "meta_eccentricity": 0.0003448,
        "meta_inclination": 43.001,
        "meta_ra_of_asc_node": 140.4448,
        "meta_arg_of_pericenter": 267.6242,
        "meta_mean_anomaly": 92.422,
        "meta_ephemeris_type": 0,
        "meta_classification_type": "U",
        "meta_norad_cat_id": 66602,
        "meta_element_set_no": 999,
        "meta_rev_at_epoch": 564,
        "meta_bstar": 0.00045714,
        "meta_mean_motion_dot": 0.00018872,
        "meta_mean_motion_ddot": 0,
        "tle_line1": "1 66602U 25270Q   25355.80681807  .00018872  00000+0  45714-3 0  9993",
        "tle_line2": "2 66602  43.0010 140.4448 0003448 267.6242  92.4220 15.40749090  5646"
      },
      "geometry": {
        "type": "Point",
        "coordinates": [
          -16.70220429618896,
          -21.453561732527692
        ]
      }
    },
    {
      "type": "Feature",
      "properties": {
        "norad_id": 66603,
        "name": "STARLINK-36048",
        "group": "last-30-days",
        "lat": -23.492462559824293,
        "lon": 110.27950785863334,
        "alt_km": 445.3975709383276,
        "timestamp": "2025-12-22T04:03:37.885622+00:00",
        "meta_object_name": "STARLINK-36048",
        "meta_object_id": "2025-270R",
        "meta_epoch": "2025-12-21T17:19:27.692256",
        "meta_mean_motion": 15.40731069,
        "meta_eccentricity": 0.0001388,
        "meta_inclination": 43.0016,
        "meta_ra_of_asc_node": 140.66,
        "meta_arg_of_pericenter": 277.9938,
        "meta_mean_anomaly": 82.0761,
        "meta_ephemeris_type": 0,
        "meta_classification_type": "U",
        "meta_norad_cat_id": 66603,
        "meta_element_set_no": 999,
        "meta_rev_at_epoch": 563,
        "meta_bstar": 0.00098557,
        "meta_mean_motion_dot": 0.00041131,
        "meta_mean_motion_ddot": 0,
        "tle_line1": "1 66603U 25270R   25355.72184829  .00041131  00000+0  98557-3 0  9994",
        "tle_line2": "2 66603  43.0016 140.6600 0001388 277.9938  82.0761 15.40731069  5633"
      },
      "geometry": {
        "type": "Point",
        "coordinates": [
          110.27950785863334,
          -23.492462559824293
        ]
      }
    }
  ]
}